{
    "links": {
        "self": "http://www.neowsapp.com/rest/v1/neo/3842759?api_key=iIulBulltgU6a56xZRHN4H3l9WmuAYTsLGpBGhQ2"
    },
    "id": "3842759",
    "neo_reference_id": "3842759",
    "name": "(2019 LL1)",
    "designation": "2019 LL1",
    "nasa_jpl_url": "http://ssd.jpl.nasa.gov/sbdb.cgi?sstr=3842759",
    "absolute_magnitude_h": 26.5,
    "estimated_diameter": {
        "kilometers": {
            "estimated_diameter_min": 0.0133215567,
            "estimated_diameter_max": 0.0297879063
        },
        "meters": {
            "estimated_diameter_min": 13.3215566698,
            "estimated_diameter_max": 29.7879062798
        },
        "miles": {
            "estimated_diameter_min": 0.008277629,
            "estimated_diameter_max": 0.0185093411
        },
        "feet": {
            "estimated_diameter_min": 43.7058959846,
            "estimated_diameter_max": 97.7293544391
        }
    },
    "is_potentially_hazardous_asteroid": false,
    "close_approach_data": [
        {
            "close_approach_date": "2016-02-15",
            "close_approach_date_full": "2016-Feb-15 03:22",
            "epoch_date_close_approach": 1455506520000,
            "relative_velocity": {
                "kilometers_per_second": "10.6144955585",
                "kilometers_per_hour": "38212.1840105766",
                "miles_per_hour": "23743.5651147941"
            },
            "miss_distance": {
                "astronomical": "0.0901225553",
                "lunar": "35.0576740117",
                "kilometers": "13482142.311837211",
                "miles": "8377414.7666910718"
            },
            "orbiting_body": "Mars"
        },
        {
            "close_approach_date": "2016-05-06",
            "close_approach_date_full": "2016-May-06 10:51",
            "epoch_date_close_approach": 1462531860000,
            "relative_velocity": {
                "kilometers_per_second": "21.9852115342",
                "kilometers_per_hour": "79146.7615229771",
                "miles_per_hour": "49178.7196807632"
            },
            "miss_distance": {
                "astronomical": "0.447111693",
                "lunar": "173.926448577",
                "kilometers": "66886956.92489391",
                "miles": "41561627.794839558"
            },
            "orbiting_body": "Earth"
        },
        {
            "close_approach_date": "2019-06-14",
            "close_approach_date_full": "2019-Jun-14 12:04",
            "epoch_date_close_approach": 1560513840000,
            "relative_velocity": {
                "kilometers_per_second": "8.8506212497",
                "kilometers_per_hour": "31862.2364988837",
                "miles_per_hour": "19797.9546734314"
            },
            "miss_distance": {
                "astronomical": "0.0143765228",
                "lunar": "5.5924673692",
                "kilometers": "2150697.188886436",
                "miles": "1336381.2643513768"
            },
            "orbiting_body": "Earth"
        }
    ],
    "orbital_data": {
        "orbit_id": "4",
        "orbit_determination_date": "2019-06-15 10:26:50",
        "first_observation_date": "2019-05-25",
        "last_observation_date": "2019-06-15",
        "data_arc_in_days": 21,
        "observations_used": 22,
        "orbit_uncertainty": "7",
        "minimum_orbit_intersection": ".00888928",
        "jupiter_tisserand_invariant": "3.550",
        "epoch_osculation": "2459000.5",
        "eccentricity": ".5299247606164635",
        "semi_major_axis": "2.105822000026187",
        "inclination": "1.546000359732812",
        "ascending_node_longitude": "247.6736122404618",
        "orbital_period": "1116.171462800606",
        "perihelion_distance": ".9898947807614276",
        "perihelion_argument": "41.50415301126468",
        "aphelion_distance": "3.221749219290947",
        "perihelion_time": "2458670.354728356001",
        "mean_anomaly": "106.4821147582694",
        "mean_motion": ".3225310913224009",
        "equinox": "J2000",
        "orbit_class": {
            "orbit_class_type": "APO",
            "orbit_class_description": "Near-Earth asteroid orbits which cross the Earth’s orbit similar to that of 1862 Apollo",
            "orbit_class_range": "a (semi-major axis) > 1.0 AU; q (perihelion) < 1.017 AU"
        }
    },
    "is_sentry_object": false
}